{
  "type": "FeatureCollection",
  "features": [
    {
      "type": "Feature",
      "properties": {
        "norad_id": 29798,
        "name": "FENGYUN 1C DEB",
        "group": "fengyun-1c-debris",
        "lat": 47.3881723422027,
        "lon": 49.39766164532987,
        "alt_km": 967.2914475229309,
        "timestamp": "2025-12-21T14:40:48.187921+00:00",
        "meta_object_name": "FENGYUN 1C DEB",
        "meta_object_id": "1999-025CQ",
        "meta_epoch": "2025-12-20T04:15:14.103648",
        "meta_mean_motion": 13.9960029,
        "meta_eccentricity": 0.01119072,
        "meta_inclination": 99.2954,
        "meta_ra_of_asc_node": 58.1967,
        "meta_arg_of_pericenter": 252.1844,
        "meta_mean_anomaly": 132.1574,
        "meta_ephemeris_type": 0,
        "meta_classification_type": "U",
        "meta_norad_cat_id": 29798,
        "meta_element_set_no": 999,
        "meta_rev_at_epoch": 96029,
        "meta_bstar": 0.0011440608,
        "meta_mean_motion_dot": 1.717e-05,
        "meta_mean_motion_ddot": 0,
        "tle_line1": "1 29798U 99025CQ  25354.17724657  .00001717  00000+0  11441-2 0  9996",
        "tle_line2": "2 29798  99.2954  58.1967 0111907 252.1844 132.1574 13.99600290960294"
      },
      "geometry": {
        "type": "Point",
        "coordinates": [
          49.39766164532987,
          47.3881723422027
        ]
      }
    },
    {
      "type": "Feature",
      "properties": {
        "norad_id": 29800,
        "name": "FENGYUN 1C DEB",
        "group": "fengyun-1c-debris",
        "lat": -2.473405694927081,
        "lon": -163.9815028527874,
        "alt_km": 810.0602095017202,
        "timestamp": "2025-12-21T14:40:48.187931+00:00",
        "meta_object_name": "FENGYUN 1C DEB",
        "meta_object_id": "1999-025CS",
        "meta_epoch": "2025-12-19T00:08:20.212800",
        "meta_mean_motion": 13.98600279,
        "meta_eccentricity": 0.01337275,
        "meta_inclination": 98.2918,
        "meta_ra_of_asc_node": 14.0214,
        "meta_arg_of_pericenter": 209.431,
        "meta_mean_anomaly": 180.2368,
        "meta_ephemeris_type": 0,
        "meta_classification_type": "U",
        "meta_norad_cat_id": 29800,
        "meta_element_set_no": 999,
        "meta_rev_at_epoch": 95664,
        "meta_bstar": 0.001576295,
        "meta_mean_motion_dot": 2.403e-05,
        "meta_mean_motion_ddot": 0,
        "tle_line1": "1 29800U 99025CS  25353.00578950  .00002403  00000+0  15763-2 0  9998",
        "tle_line2": "2 29800  98.2918  14.0214 0133727 209.4310 180.2368 13.98600279956645"
      },
      "geometry": {
        "type": "Point",
        "coordinates": [
          -163.9815028527874,
          -2.473405694927081
        ]
      }
    },
    {
      "type": "Feature",
      "properties": {
        "norad_id": 29801,
        "name": "FENGYUN 1C DEB",
        "group": "fengyun-1c-debris",
        "lat": -37.21163929986984,
        "lon": 70.06286382702137,
        "alt_km": 710.75760480382,
        "timestamp": "2025-12-21T14:40:48.187942+00:00",
        "meta_object_name": "FENGYUN 1C DEB",
        "meta_object_id": "1999-025CT",
        "meta_epoch": "2025-12-20T06:27:01.429920",
        "meta_mean_motion": 14.35904744,
        "meta_eccentricity": 0.0102829,
        "meta_inclination": 98.7952,
        "meta_ra_of_asc_node": 255.4448,
        "meta_arg_of_pericenter": 244.936,
        "meta_mean_anomaly": 235.3106,
        "meta_ephemeris_type": 0,
        "meta_classification_type": "U",
        "meta_norad_cat_id": 29801,
        "meta_element_set_no": 999,
        "meta_rev_at_epoch": 99049,
        "meta_bstar": 0.00011811,
        "meta_mean_motion_dot": 3.15e-06,
        "meta_mean_motion_ddot": 0,
        "tle_line1": "1 29801U 99025CT  25354.26876655  .00000315  00000+0  11811-3 0  9992",
        "tle_line2": "2 29801  98.7952 255.4448 0102829 244.9360 235.3106 14.35904744990496"
      },
      "geometry": {
        "type": "Point",
        "coordinates": [
          70.06286382702137,
          -37.21163929986984
        ]
      }
    },
    {
      "type": "Feature",
      "properties": {
        "norad_id": 29802,
        "name": "FENGYUN 1C DEB",
        "group": "fengyun-1c-debris",
        "lat": -33.08805360833616,
        "lon": 110.7825107650016,
        "alt_km": 665.8817587832518,
        "timestamp": "2025-12-21T14:40:48.187952+00:00",
        "meta_object_name": "FENGYUN 1C DEB",
        "meta_object_id": "1999-025CU",
        "meta_epoch": "2025-12-18T20:03:58.588128",
        "meta_mean_motion": 14.62468382,
        "meta_eccentricity": 0.00371931,
        "meta_inclination": 98.6193,
        "meta_ra_of_asc_node": 102.2149,
        "meta_arg_of_pericenter": 319.4333,
        "meta_mean_anomaly": 162.267,
        "meta_ephemeris_type": 0,
        "meta_classification_type": "U",
        "meta_norad_cat_id": 29802,
        "meta_element_set_no": 999,
        "meta_rev_at_epoch": 98562,
        "meta_bstar": 0.0019704594,
        "meta_mean_motion_dot": 0.0001004,
        "meta_mean_motion_ddot": 0,
        "tle_line1": "1 29802U 99025CU  25352.83609477  .00010040  00000+0  19705-2 0  9995",
        "tle_line2": "2 29802  98.6193 102.2149 0037193 319.4333 162.2670 14.62468382985625"
      },
      "geometry": {
        "type": "Point",
        "coordinates": [
          110.7825107650016,
          -33.08805360833616
        ]
      }
    },
    {
      "type": "Feature",
      "properties": {
        "norad_id": 29804,
        "name": "FENGYUN 1C DEB",
        "group": "fengyun-1c-debris",
        "lat": -61.56383069181973,
        "lon": 166.919602022903,
        "alt_km": 827.4756770232343,
        "timestamp": "2025-12-21T14:40:48.187962+00:00",
        "meta_object_name": "FENGYUN 1C DEB",
        "meta_object_id": "1999-025CW",
        "meta_epoch": "2025-12-21T06:47:17.274048",
        "meta_mean_motion": 14.04323817,
        "meta_eccentricity": 0.00969345,
        "meta_inclination": 98.8047,
        "meta_ra_of_asc_node": 3.2323,
        "meta_arg_of_pericenter": 277.7556,
        "meta_mean_anomaly": 104.157,
        "meta_ephemeris_type": 0,
        "meta_classification_type": "U",
        "meta_norad_cat_id": 29804,
        "meta_element_set_no": 999,
        "meta_rev_at_epoch": 97014,
        "meta_bstar": -4.3833126e-05,
        "meta_mean_motion_dot": -1.16e-06,
        "meta_mean_motion_ddot": 0,
        "tle_line1": "1 29804U 99025CW  25355.28283882 -.00000116  00000+0 -43833-4 0  9993",
        "tle_line2": "2 29804  98.8047   3.2323 0096934 277.7556 104.1570 14.04323817970146"
      },
      "geometry": {
        "type": "Point",
        "coordinates": [
          166.919602022903,
          -61.56383069181973
        ]
      }
    },
    {
      "type": "Feature",
      "properties": {
        "norad_id": 29805,
        "name": "FENGYUN 1C DEB",
        "group": "fengyun-1c-debris",
        "lat": 65.13297566995355,
        "lon": -112.16176324227949,
        "alt_km": 989.6866751981079,
        "timestamp": "2025-12-21T14:40:48.187972+00:00",
        "meta_object_name": "FENGYUN 1C DEB",
        "meta_object_id": "1999-025CX",
        "meta_epoch": "2025-12-20T22:22:17.500800",
        "meta_mean_motion": 13.72659894,
        "meta_eccentricity": 0.0188295,
        "meta_inclination": 99.4538,
        "meta_ra_of_asc_node": 46.0991,
        "meta_arg_of_pericenter": 208.4147,
        "meta_mean_anomaly": 150.6632,
        "meta_ephemeris_type": 0,
        "meta_classification_type": "U",
        "meta_norad_cat_id": 29805,
        "meta_element_set_no": 999,
        "meta_rev_at_epoch": 94815,
        "meta_bstar": 0.00014307,
        "meta_mean_motion_dot": 1.04e-06,
        "meta_mean_motion_ddot": 0,
        "tle_line1": "1 29805U 99025CX  25354.93214700  .00000104  00000+0  14307-3 0  9996",
        "tle_line2": "2 29805  99.4538  46.0991 0188295 208.4147 150.6632 13.72659894948156"
      },
      "geometry": {
        "type": "Point",
        "coordinates": [
          -112.16176324227949,
          65.13297566995355
        ]
      }
    },
    {
      "type": "Feature",
      "properties": {
        "norad_id": 29806,
        "name": "FENGYUN 1C DEB",
        "group": "fengyun-1c-debris",
        "lat": 42.7685720667552,
        "lon": -160.6969140804835,
        "alt_km": 848.6441162283036,
        "timestamp": "2025-12-21T14:40:48.187983+00:00",
        "meta_object_name": "FENGYUN 1C DEB",
        "meta_object_id": "1999-025CY",
        "meta_epoch": "2025-12-21T00:41:27.874176",
        "meta_mean_motion": 14.12021579,
        "meta_eccentricity": 0.00278634,
        "meta_inclination": 98.7122,
        "meta_ra_of_asc_node": 10.5828,
        "meta_arg_of_pericenter": 227.6714,
        "meta_mean_anomaly": 187.9231,
        "meta_ephemeris_type": 0,
        "meta_classification_type": "U",
        "meta_norad_cat_id": 29806,
        "meta_element_set_no": 999,
        "meta_rev_at_epoch": 97256,
        "meta_bstar": 0.00038681316,
        "meta_mean_motion_dot": 6.68e-06,
        "meta_mean_motion_ddot": 0,
        "tle_line1": "1 29806U 99025CY  25355.02879484  .00000668  00000+0  38681-3 0  9990",
        "tle_line2": "2 29806  98.7122  10.5828 0027863 227.6714 187.9231 14.12021579972567"
      },
      "geometry": {
        "type": "Point",
        "coordinates": [
          -160.6969140804835,
          42.7685720667552
        ]
      }
    }
  ]
}